{"type": "FeatureCollection", "features": [ {"type": "Feature", "properties": {"norad_id": 41469, "name": "IRNSS-1G", "group": "gnss", "lat": -0.07796999193960923, "lon": -77.54304161099179, "alt_km": 35794.96332533837, "timestamp": "2025-12-25T03:55:56.599504+00:00", "meta": {"OBJECT_NAME": "IRNSS-1G", "OBJECT_ID": "2016-027A", "EPOCH": "2025-12-24T15:25:42.685824", "MEAN_MOTION": 1.0027416, "ECCENTRICITY": 0.0002678, "INCLINATION": 4.7637, "RA_OF_ASC_NODE": 101.7934, "ARG_OF_PERICENTER": 327.1005, "MEAN_ANOMALY": 25.5067, "EPHEMERIS_TYPE": 0, "CLASSIFICATION_TYPE": "U", "NORAD_CAT_ID": 41469, "ELEMENT_SET_NO": 999, "REV_AT_EPOCH": 3542, "BSTAR": 0, "MEAN_MOTION_DOT": -3.14e-06, "MEAN_MOTION_DDOT": 0}, "tle": {"line1": "1 41469U 16027A   25358.64285516 -.00000314  00000+0  00000+0 0  9997", "line2": "2 41469   4.7637 101.7934 0002678 327.1005  25.5067  1.00274160 35429"}}, "geometry": {"type": "Point", "coordinates": [-77.54304161099179, -0.07796999193960923]}}, {"type": "Feature", "properties": {"norad_id": 41549, "name": "GSAT0211 (GALILEO 14)", "group": "gnss", "lat": -1.9387335952942437, "lon": -134.85501721557472, "alt_km": 23211.393351849583, "timestamp": "2025-12-25T03:55:56.599516+00:00", "meta": {"OBJECT_NAME": "GSAT0211 (GALILEO 14)", "OBJECT_ID": "2016-030A", "EPOCH": "2025-12-22T05:38:05.943264", "MEAN_MOTION": 1.70473275, "ECCENTRICITY": 0.00040882, "INCLINATION": 55.1491, "RA_OF_ASC_NODE": 226.562, "ARG_OF_PERICENTER": 17.521, "MEAN_ANOMALY": 342.5988, "EPHEMERIS_TYPE": 0, "CLASSIFICATION_TYPE": "U", "NORAD_CAT_ID": 41549, "ELEMENT_SET_NO": 999, "REV_AT_EPOCH": 5965, "BSTAR": 0, "MEAN_MOTION_DOT": 7.3e-07, "MEAN_MOTION_DDOT": 0}, "tle": {"line1": "1 41549U 16030A   25356.23479101  .00000073  00000+0  00000+0 0  9999", "line2": "2 41549  55.1491 226.5620 0004088  17.5210 342.5988  1.70473275 59659"}}, "geometry": {"type": "Point", "coordinates": [-134.85501721557472, -1.9387335952942437]}}, {"type": "Feature", "properties": {"norad_id": 41550, "name": "GSAT0210 (GALILEO 13)", "group": "gnss", "lat": -16.068733174686386, "lon": 58.06995760153922, "alt_km": 23222.9877500563, "timestamp": "2025-12-25T03:55:56.599531+00:00", "meta": {"OBJECT_NAME": "GSAT0210 (GALILEO 13)", "OBJECT_ID": "2016-030B", "EPOCH": "2025-12-23T01:53:26.064096", "MEAN_MOTION": 1.704734, "ECCENTRICITY": 5.527e-05, "INCLINATION": 55.1484, "RA_OF_ASC_NODE": 226.5368, "ARG_OF_PERICENTER": 180.205, "MEAN_ANOMALY": 179.8969, "EPHEMERIS_TYPE": 0, "CLASSIFICATION_TYPE": "U", "NORAD_CAT_ID": 41550, "ELEMENT_SET_NO": 999, "REV_AT_EPOCH": 5966, "BSTAR": 0, "MEAN_MOTION_DOT": 7.3e-07, "MEAN_MOTION_DDOT": 0}, "tle": {"line1": "1 41550U 16030B   25357.07877389  .00000073  00000+0  00000+0 0  9994", "line2": "2 41550  55.1484 226.5368 0000552 180.2050 179.8969  1.70473400 59665"}}, "geometry": {"type": "Point", "coordinates": [58.06995760153922, -16.068733174686386]}}, {"type": "Feature", "properties": {"norad_id": 41586, "name": "BEIDOU-2 G7 (C03)", "group": "gnss", "lat": -0.4938334022549167, "lon": -96.68500707217002, "alt_km": 35808.290775226895, "timestamp": "2025-12-25T03:55:56.599557+00:00", "meta": {"OBJECT_NAME": "BEIDOU-2 G7 (C03)", "OBJECT_ID": "2016-037A", "EPOCH": "2025-12-24T20:28:21.205344", "MEAN_MOTION": 1.00268909, "ECCENTRICITY": 0.0005195, "INCLINATION": 1.7846, "RA_OF_ASC_NODE": 67.8918, "ARG_OF_PERICENTER": 0.9994, "MEAN_ANOMALY": 82.25, "EPHEMERIS_TYPE": 0, "CLASSIFICATION_TYPE": "U", "NORAD_CAT_ID": 41586, "ELEMENT_SET_NO": 999, "REV_AT_EPOCH": 514, "BSTAR": 0, "MEAN_MOTION_DOT": -3.32e-06, "MEAN_MOTION_DDOT": 0}, "tle": {"line1": "1 41586U 16037A   25358.85302321 -.00000332  00000+0  00000+0 0  9995", "line2": "2 41586   1.7846  67.8918 0005195   0.9994  82.2500  1.00268909  5144"}}, "geometry": {"type": "Point", "coordinates": [-96.68500707217002, -0.4938334022549167]}}, {"type": "Feature", "properties": {"norad_id": 41589, "name": "EUTELSAT 117 WEST B (WAAS/PRN 131)", "group": "gnss", "lat": -0.001530114936033489, "lon": 35.88725709917539, "alt_km": 35786.75352130096, "timestamp": "2025-12-25T03:55:56.599575+00:00", "meta": {"OBJECT_NAME": "EUTELSAT 117 WEST B (WAAS/PRN 131)", "OBJECT_ID": "2016-038B", "EPOCH": "2025-12-23T15:59:57.810912", "MEAN_MOTION": 1.00269264, "ECCENTRICITY": 2.679e-05, "INCLINATION": 0.0112, "RA_OF_ASC_NODE": 151.1868, "ARG_OF_PERICENTER": 153.5075, "MEAN_ANOMALY": 270.7383, "EPHEMERIS_TYPE": 0, "CLASSIFICATION_TYPE": "U", "NORAD_CAT_ID": 41589, "ELEMENT_SET_NO": 999, "REV_AT_EPOCH": 3490, "BSTAR": 0, "MEAN_MOTION_DOT": 1e-07, "MEAN_MOTION_DDOT": 0}, "tle": {"line1": "1 41589U 16038B   25357.66664133  .00000010  00000+0  00000+0 0  9991", "line2": "2 41589   0.0112 151.1868 0000267 153.5075 270.7383  1.00269264 34900"}}, "geometry": {"type": "Point", "coordinates": [35.88725709917539, -0.001530114936033489]}}, {"type": "Feature", "properties": {"norad_id": 41859, "name": "GSAT0207 (GALILEO 15)", "group": "gnss", "lat": 23.466167503960662, "lon": 123.32555592959056, "alt_km": 23217.00887629945, "timestamp": "2025-12-25T03:55:56.599587+00:00", "meta": {"OBJECT_NAME": "GSAT0207 (GALILEO 15)", "OBJECT_ID": "2016-069A", "EPOCH": "2025-12-22T04:24:39.710016", "MEAN_MOTION": 1.70474442, "ECCENTRICITY": 0.00024396, "INCLINATION": 55.3874, "RA_OF_ASC_NODE": 105.9888, "ARG_OF_PERICENTER": 317.4324, "MEAN_ANOMALY": 42.5257, "EPHEMERIS_TYPE": 0, "CLASSIFICATION_TYPE": "U", "NORAD_CAT_ID": 41859, "ELEMENT_SET_NO": 999, "REV_AT_EPOCH": 5638, "BSTAR": 0, "MEAN_MOTION_DOT": 6e-08, "MEAN_MOTION_DDOT": 0}, "tle": {"line1": "1 41859U 16069A   25356.18379294  .00000006  00000+0  00000+0 0  9997", "line2": "2 41859  55.3874 105.9888 0002439 317.4324  42.5257  1.70474442 56382"}}, "geometry": {"type": "Point", "coordinates": [123.32555592959056, 23.466167503960662]}}, {"type": "Feature", "properties": {"norad_id": 41860, "name": "GSAT0212 (GALILEO 16)", "group": "gnss", "lat": 46.1668271262813, "lon": -120.01401112919741, "alt_km": 23217.719797566097, "timestamp": "2025-12-25T03:55:56.599599+00:00", "meta": {"OBJECT_NAME": "GSAT0212 (GALILEO 16)", "OBJECT_ID": "2016-069B", "EPOCH": "2025-12-23T19:07:58.352160", "MEAN_MOTION": 1.7047463, "ECCENTRICITY": 0.00020402, "INCLINATION": 55.386, "RA_OF_ASC_NODE": 105.9395, "ARG_OF_PERICENTER": 18.1748, "MEAN_ANOMALY": 341.8198, "EPHEMERIS_TYPE": 0, "CLASSIFICATION_TYPE": "U", "NORAD_CAT_ID": 41860, "ELEMENT_SET_NO": 999, "REV_AT_EPOCH": 5666, "BSTAR": 0, "MEAN_MOTION_DOT": 1.3e-07, "MEAN_MOTION_DDOT": 0}, "tle": {"line1": "1 41860U 16069B   25357.79720315  .00000013  00000+0  00000+0 0  9999", "line2": "2 41860  55.3860 105.9395 0002040  18.1748 341.8198  1.70474630 56664"}}, "geometry": {"type": "Point", "coordinates": [-120.01401112919741, 46.1668271262813]}}, {"type": "Feature", "properties": {"norad_id": 41861, "name": "GSAT0213 (GALILEO 17)", "group": "gnss", "lat": -51.99165024006256, "lon": -12.161865671947844, "alt_km": 23220.717012539448, "timestamp": "2025-12-25T03:55:56.599610+00:00", "meta": {"OBJECT_NAME": "GSAT0213 (GALILEO 17)", "OBJECT_ID": "2016-069C", "EPOCH": "2025-12-21T19:38:29.842080", "MEAN_MOTION": 1.70474953, "ECCENTRICITY": 0.00027355, "INCLINATION": 55.3872, "RA_OF_ASC_NODE": 106.002, "ARG_OF_PERICENTER": 282.3014, "MEAN_ANOMALY": 77.6427, "EPHEMERIS_TYPE": 0, "CLASSIFICATION_TYPE": "U", "NORAD_CAT_ID": 41861, "ELEMENT_SET_NO": 999, "REV_AT_EPOCH": 5649, "BSTAR": 0, "MEAN_MOTION_DOT": 4e-08, "MEAN_MOTION_DDOT": 0}, "tle": {"line1": "1 41861U 16069C   25355.81840095  .00000004  00000+0  00000+0 0  9999", "line2": "2 41861  55.3872 106.0020 0002735 282.3014  77.6427  1.70474953 56495"}}, "geometry": {"type": "Point", "coordinates": [-12.161865671947844, -51.99165024006256]}}, {"type": "Feature", "properties": {"norad_id": 41862, "name": "GSAT0214 (GALILEO 18)", "group": "gnss", "lat": 13.461557521806794, "lon": -83.5992637276705, "alt_km": 23223.281843245746, "timestamp": "2025-12-25T03:55:56.599624+00:00", "meta": {"OBJECT_NAME": "GSAT0214 (GALILEO 18)", "OBJECT_ID": "2016-069D", "EPOCH": "2025-12-21T09:04:04.029024", "MEAN_MOTION": 1.70474854, "ECCENTRICITY": 0.00016223, "INCLINATION": 55.385, "RA_OF_ASC_NODE": 106.0069, "ARG_OF_PERICENTER": 287.8422, "MEAN_ANOMALY": 72.112, "EPHEMERIS_TYPE": 0, "CLASSIFICATION_TYPE": "U", "NORAD_CAT_ID": 41862, "ELEMENT_SET_NO": 999, "REV_AT_EPOCH": 5661, "BSTAR": 0, "MEAN_MOTION_DOT": 2e-08, "MEAN_MOTION_DDOT": 0}, "tle": {"line1": "1 41862U 16069D   25355.37782441  .00000002  00000+0  00000+0 0  9999", "line2": "2 41862  55.3850 106.0069 0001622 287.8422  72.1120  1.70474854 56616"}}, "geometry": {"type": "Point", "coordinates": [-83.5992637276705, 13.461557521806794]}}, {"type": "Feature", "properties": {"norad_id": 42709, "name": "SES-15 (WAAS/PRN 133)", "group": "gnss", "lat": 0.019621456405963508, "lon": 23.74018998056499, "alt_km": 35787.19728756375, "timestamp": "2025-12-25T03:55:56.599638+00:00", "meta": {"OBJECT_NAME": "SES-15 (WAAS/PRN 133)", "OBJECT_ID": "2017-026A", "EPOCH": "2025-12-24T17:37:15.090816", "MEAN_MOTION": 1.00266846, "ECCENTRICITY": 1.93e-05, "INCLINATION": 0.019, "RA_OF_ASC_NODE": 339.5324, "ARG_OF_PERICENTER": 331.1241, "MEAN_ANOMALY": 277.9993, "EPHEMERIS_TYPE": 0, "CLASSIFICATION_TYPE": "U", "NORAD_CAT_ID": 42709, "ELEMENT_SET_NO": 999, "REV_AT_EPOCH": 568, "BSTAR": 0, "MEAN_MOTION_DOT": 8.1e-07, "MEAN_MOTION_DDOT": 0}, "tle": {"line1": "1 42709U 17026A   25358.73420244  .00000081  00000+0  00000+0 0  9994", "line2": "2 42709   0.0190 339.5324 0000193 331.1241 277.9993  1.00266846  5689"}}, "geometry": {"type": "Point", "coordinates": [23.74018998056499, 0.019621456405963508]}}]}